{
  "type": "FeatureCollection",
  "features": [
    {
      "type": "Feature",
      "properties": {
        "norad_id": 37846,
        "name": "GSAT0101 (GALILEO-PFM)",
        "group": "galileo",
        "lat": NaN,
        "lon": NaN,
        "alt_km": NaN,
        "timestamp": "2025-12-01T03:03:41.147677+00:00",
        "meta": {
          "OBJECT_NAME": "GSAT0101 (GALILEO-PFM)",
          "OBJECT_ID": "2011-060A",
          "EPOCH": "2025-11-24T03:07:29.832960",
          "MEAN_MOTION": 1.70475782,
          "ECCENTRICITY": 0.00025776,
          "INCLINATION": 57.0574,
          "RA_OF_ASC_NODE": 347.3256,
          "ARG_OF_PERICENTER": 308.2281,
          "MEAN_ANOMALY": 51.7929,
          "EPHEMERIS_TYPE": 0,
          "CLASSIFICATION_TYPE": "U",
          "NORAD_CAT_ID": 37846,
          "ELEMENT_SET_NO": 999,
          "REV_AT_EPOCH": 8762,
          "BSTAR": 0,
          "MEAN_MOTION_DOT": -6.3e-07,
          "MEAN_MOTION_DDOT": 0
        }
      },
      "geometry": {
        "type": "Point",
        "coordinates": [
          NaN,
          NaN
        ]
      }
    },
    {
      "type": "Feature",
      "properties": {
        "norad_id": 37847,
        "name": "GSAT0102 (GALILEO-FM2)",
        "group": "galileo",
        "lat": NaN,
        "lon": NaN,
        "alt_km": NaN,
        "timestamp": "2025-12-01T03:03:41.147696+00:00",
        "meta": {
          "OBJECT_NAME": "GSAT0102 (GALILEO-FM2)",
          "OBJECT_ID": "2011-060B",
          "EPOCH": "2025-11-29T14:59:45.115008",
          "MEAN_MOTION": 1.70475771,
          "ECCENTRICITY": 0.00046767,
          "INCLINATION": 57.0566,
          "RA_OF_ASC_NODE": 347.1768,
          "ARG_OF_PERICENTER": 305.2654,
          "MEAN_ANOMALY": 232.3795,
          "EPHEMERIS_TYPE": 0,
          "CLASSIFICATION_TYPE": "U",
          "NORAD_CAT_ID": 37847,
          "ELEMENT_SET_NO": 999,
          "REV_AT_EPOCH": 8772,
          "BSTAR": 0,
          "MEAN_MOTION_DOT": -5.6e-07,
          "MEAN_MOTION_DDOT": 0
        }
      },
      "geometry": {
        "type": "Point",
        "coordinates": [
          NaN,
          NaN
        ]
      }
    },
    {
      "type": "Feature",
      "properties": {
        "norad_id": 38857,
        "name": "GSAT0103 (GALILEO-FM3)",
        "group": "galileo",
        "lat": NaN,
        "lon": NaN,
        "alt_km": NaN,
        "timestamp": "2025-12-01T03:03:41.147710+00:00",
        "meta": {
          "OBJECT_NAME": "GSAT0103 (GALILEO-FM3)",
          "OBJECT_ID": "2012-055A",
          "EPOCH": "2025-11-28T20:42:38.723616",
          "MEAN_MOTION": 1.70473322,
          "ECCENTRICITY": 0.00022412,
          "INCLINATION": 55.6842,
          "RA_OF_ASC_NODE": 107.0477,
          "ARG_OF_PERICENTER": 266.7022,
          "MEAN_ANOMALY": 93.2527,
          "EPHEMERIS_TYPE": 0,
          "CLASSIFICATION_TYPE": "U",
          "NORAD_CAT_ID": 38857,
          "ELEMENT_SET_NO": 999,
          "REV_AT_EPOCH": 8159,
          "BSTAR": 0,
          "MEAN_MOTION_DOT": 5.5e-07,
          "MEAN_MOTION_DDOT": 0
        }
      },
      "geometry": {
        "type": "Point",
        "coordinates": [
          NaN,
          NaN
        ]
      }
    },
    {
      "type": "Feature",
      "properties": {
        "norad_id": 40128,
        "name": "GSAT0201 (GALILEO 5)",
        "group": "galileo",
        "lat": NaN,
        "lon": NaN,
        "alt_km": NaN,
        "timestamp": "2025-12-01T03:03:41.147739+00:00",
        "meta": {
          "OBJECT_NAME": "GSAT0201 (GALILEO 5)",
          "OBJECT_ID": "2014-050A",
          "EPOCH": "2025-11-28T09:00:06.762528",
          "MEAN_MOTION": 1.85519533,
          "ECCENTRICITY": 0.16464881,
          "INCLINATION": 49.0938,
          "RA_OF_ASC_NODE": 281.6492,
          "ARG_OF_PERICENTER": 171.7362,
          "MEAN_ANOMALY": 191.3851,
          "EPHEMERIS_TYPE": 0,
          "CLASSIFICATION_TYPE": "U",
          "NORAD_CAT_ID": 40128,
          "ELEMENT_SET_NO": 999,
          "REV_AT_EPOCH": 7459,
          "BSTAR": 0,
          "MEAN_MOTION_DOT": -4.8e-07,
          "MEAN_MOTION_DDOT": 0
        }
      },
      "geometry": {
        "type": "Point",
        "coordinates": [
          NaN,
          NaN
        ]
      }
    },
    {
      "type": "Feature",
      "properties": {
        "norad_id": 40129,
        "name": "GSAT0202 (GALILEO 6)",
        "group": "galileo",
        "lat": NaN,
        "lon": NaN,
        "alt_km": NaN,
        "timestamp": "2025-12-01T03:03:41.147745+00:00",
        "meta": {
          "OBJECT_NAME": "GSAT0202 (GALILEO 6)",
          "OBJECT_ID": "2014-050B",
          "EPOCH": "2025-11-29T17:01:27.924672",
          "MEAN_MOTION": 1.85520097,
          "ECCENTRICITY": 0.1647266,
          "INCLINATION": 49.1079,
          "RA_OF_ASC_NODE": 280.6784,
          "ARG_OF_PERICENTER": 172.5408,
          "MEAN_ANOMALY": 190.2825,
          "EPHEMERIS_TYPE": 0,
          "CLASSIFICATION_TYPE": "U",
          "NORAD_CAT_ID": 40129,
          "ELEMENT_SET_NO": 999,
          "REV_AT_EPOCH": 7678,
          "BSTAR": 0,
          "MEAN_MOTION_DOT": -5.4e-07,
          "MEAN_MOTION_DDOT": 0
        }
      },
      "geometry": {
        "type": "Point",
        "coordinates": [
          NaN,
          NaN
        ]
      }
    },
    {
      "type": "Feature",
      "properties": {
        "norad_id": 40544,
        "name": "GSAT0203 (GALILEO 7)",
        "group": "galileo",
        "lat": NaN,
        "lon": NaN,
        "alt_km": NaN,
        "timestamp": "2025-12-01T03:03:41.147755+00:00",
        "meta": {
          "OBJECT_NAME": "GSAT0203 (GALILEO 7)",
          "OBJECT_ID": "2015-017A",
          "EPOCH": "2025-11-29T04:30:08.373888",
          "MEAN_MOTION": 1.70475942,
          "ECCENTRICITY": 0.00064961,
          "INCLINATION": 56.8498,
          "RA_OF_ASC_NODE": 347.0502,
          "ARG_OF_PERICENTER": 266.8168,
          "MEAN_ANOMALY": 93.1521,
          "EPHEMERIS_TYPE": 0,
          "CLASSIFICATION_TYPE": "U",
          "NORAD_CAT_ID": 40544,
          "ELEMENT_SET_NO": 999,
          "REV_AT_EPOCH": 6579,
          "BSTAR": 0,
          "MEAN_MOTION_DOT": -5.6e-07,
          "MEAN_MOTION_DDOT": 0
        }
      },
      "geometry": {
        "type": "Point",
        "coordinates": [
          NaN,
          NaN
        ]
      }
    },
    {
      "type": "Feature",
      "properties": {
        "norad_id": 40545,
        "name": "GSAT0204 (GALILEO 8)",
        "group": "galileo",
        "lat": NaN,
        "lon": NaN,
        "alt_km": NaN,
        "timestamp": "2025-12-01T03:03:41.147761+00:00",
        "meta": {
          "OBJECT_NAME": "GSAT0204 (GALILEO 8)",
          "OBJECT_ID": "2015-017B",
          "EPOCH": "2025-11-28T20:33:17.648064",
          "MEAN_MOTION": 1.70475529,
          "ECCENTRICITY": 0.00062426,
          "INCLINATION": 56.8551,
          "RA_OF_ASC_NODE": 347.0768,
          "ARG_OF_PERICENTER": 259.3843,
          "MEAN_ANOMALY": 100.5886,
          "EPHEMERIS_TYPE": 0,
          "CLASSIFICATION_TYPE": "U",
          "NORAD_CAT_ID": 40545,
          "ELEMENT_SET_NO": 999,
          "REV_AT_EPOCH": 2883,
          "BSTAR": 0,
          "MEAN_MOTION_DOT": -5.6e-07,
          "MEAN_MOTION_DDOT": 0
        }
      },
      "geometry": {
        "type": "Point",
        "coordinates": [
          NaN,
          NaN
        ]
      }
    },
    {
      "type": "Feature",
      "properties": {
        "norad_id": 40889,
        "name": "GSAT0205 (GALILEO 9)",
        "group": "galileo",
        "lat": NaN,
        "lon": NaN,
        "alt_km": NaN,
        "timestamp": "2025-12-01T03:03:41.147769+00:00",
        "meta": {
          "OBJECT_NAME": "GSAT0205 (GALILEO 9)",
          "OBJECT_ID": "2015-045A",
          "EPOCH": "2025-11-27T10:50:27.971232",
          "MEAN_MOTION": 1.70472924,
          "ECCENTRICITY": 0.00058028,
          "INCLINATION": 55.0089,
          "RA_OF_ASC_NODE": 227.181,
          "ARG_OF_PERICENTER": 37.9359,
          "MEAN_ANOMALY": 322.1807,
          "EPHEMERIS_TYPE": 0,
          "CLASSIFICATION_TYPE": "U",
          "NORAD_CAT_ID": 40889,
          "ELEMENT_SET_NO": 999,
          "REV_AT_EPOCH": 6357,
          "BSTAR": 0,
          "MEAN_MOTION_DOT": 2.7e-07,
          "MEAN_MOTION_DDOT": 0
        }
      },
      "geometry": {
        "type": "Point",
        "coordinates": [
          NaN,
          NaN
        ]
      }
    }
  ]
}